ALOS (DAICHI)           
1 28931U 06002A   26041.81594794  .00001610  00000+0  27847-3 0  9999
2 28931  98.1171 357.9165 0001944  63.6364 296.5041 14.69719784 69530
H-2A R/B                
1 28932U 06002B   26041.94563266  .00008721  00000+0  44389-3 0  9994
2 28932  98.2361 186.6910 0052668 333.3177  26.5345 15.15873871 90381
RESURS-DK 1             
1 29228U 06021A   26041.81985800  .00002885  00000+0  17100-3 0  9998
2 29228  69.9344 306.5208 0004430 202.4118 157.6855 15.12588078 83466
CZ-4B R/B               
1 29507U 06046C   26041.62661187  .00004677  00000+0  23953-3 0  9997
2 29507  97.5651  86.6063 0033470   4.2500 355.9010 15.16609453 55941
CZ-2C R/B               
1 31114U 07010B   26041.88434509  .00000123  00000+0  75613-4 0  9993
2 31114  98.3970 156.5091 0059171  13.3010 346.9711 14.20236823975919
COSMO-SKYMED 1          
1 31598U 07023A   26041.91753084  .00003650  00000+0  32803-3 0  9990
2 31598  97.8859 232.7396 0000859  86.6287 273.5032 14.96318751 10902
COSMOS 2428             
1 31792U 07029A   26041.91570217  .00000313  00000+0  19376-3 0  9990
2 31792  70.9396 259.5460 0007456 306.6013  53.4422 14.12934424960313
SL-16 R/B               
1 31793U 07029B   26041.91815415  .00000347  00000+0  20435-3 0  9998
2 31793  70.9738 228.6585 0002031 279.3733 185.6151 14.14833800961583
KORONAS-FOTON           
1 33504U 09003A   26041.85044827  .00011297  00000+0  25858-3 0  9998
2 33504  82.4316 303.7639 0008963 252.4952 107.5315 15.42605368941609
CZ-2C R/B               
1 37731U 11030B   26041.85863510  .00001689  00000+0  21884-3 0  9994
2 37731  97.8497 359.6708 0054209  77.9553 336.5424 14.81116732786126
H-2A R/B                
1 38341U 12025E   26041.89040757  .00003960  00000+0  36166-3 0  9994
2 38341  98.4675   6.8074 0045624  41.7234 318.7450 14.94926985744210
SHIJIAN-16 (SJ-16)      
1 39358U 13057A   26041.94644071  .00000770  00000+0  78141-4 0  9990
2 39358  74.9706 235.7126 0016766 179.3502 180.7711 14.92242687667517
