CCSDS_OMM_VERS = 2.0
CREATION_DATE  = 
ORIGINATOR     = 

OBJECT_NAME    = ALOS (DAICHI)
OBJECT_ID      = 2006-002A
CENTER_NAME    = EARTH
REF_FRAME      = TEME
TIME_SYSTEM    = UTC
MEAN_ELEMENT_THEORY = SGP/SGP4

EPOCH          = 2026-02-10T19:34:57.902016
MEAN_MOTION    = 14.69719784
ECCENTRICITY   = .00019447
INCLINATION    = 98.1171
RA_OF_ASC_NODE = 357.9165
ARG_OF_PERICENTER = 63.6364
MEAN_ANOMALY   = 296.5041

EPHEMERIS_TYPE = 0
CLASSIFICATION_TYPE = U
NORAD_CAT_ID   = 28931
ELEMENT_SET_NO = 999
REV_AT_EPOCH   = 6953
BSTAR          = .27847222E-3
MEAN_MOTION_DOT = .161E-4
MEAN_MOTION_DDOT = 0

CCSDS_OMM_VERS = 2.0
CREATION_DATE  = 
ORIGINATOR     = 

OBJECT_NAME    = H-2A R/B
OBJECT_ID      = 2006-002B
CENTER_NAME    = EARTH
REF_FRAME      = TEME
TIME_SYSTEM    = UTC
MEAN_ELEMENT_THEORY = SGP/SGP4

EPOCH          = 2026-02-10T22:41:42.661824
MEAN_MOTION    = 15.15873871
ECCENTRICITY   = .00526682
INCLINATION    = 98.2361
RA_OF_ASC_NODE = 186.6910
ARG_OF_PERICENTER = 333.3177
MEAN_ANOMALY   = 26.5345

EPHEMERIS_TYPE = 0
CLASSIFICATION_TYPE = U
NORAD_CAT_ID   = 28932
ELEMENT_SET_NO = 999
REV_AT_EPOCH   = 9038
BSTAR          = .44388639E-3
MEAN_MOTION_DOT = .8721E-4
MEAN_MOTION_DDOT = 0

CCSDS_OMM_VERS = 2.0
CREATION_DATE  = 
ORIGINATOR     = 

OBJECT_NAME    = RESURS-DK 1
OBJECT_ID      = 2006-021A
CENTER_NAME    = EARTH
REF_FRAME      = TEME
TIME_SYSTEM    = UTC
MEAN_ELEMENT_THEORY = SGP/SGP4

EPOCH          = 2026-02-10T19:40:35.731200
MEAN_MOTION    = 15.12588078
ECCENTRICITY   = .00044305
INCLINATION    = 69.9344
RA_OF_ASC_NODE = 306.5208
ARG_OF_PERICENTER = 202.4118
MEAN_ANOMALY   = 157.6855

EPHEMERIS_TYPE = 0
CLASSIFICATION_TYPE = U
NORAD_CAT_ID   = 29228
ELEMENT_SET_NO = 999
REV_AT_EPOCH   = 8346
BSTAR          = .17099893E-3
MEAN_MOTION_DOT = .2885E-4
MEAN_MOTION_DDOT = 0

CCSDS_OMM_VERS = 2.0
CREATION_DATE  = 
ORIGINATOR     = 

OBJECT_NAME    = CZ-4B R/B
OBJECT_ID      = 2006-046C
CENTER_NAME    = EARTH
REF_FRAME      = TEME
TIME_SYSTEM    = UTC
MEAN_ELEMENT_THEORY = SGP/SGP4

EPOCH          = 2026-02-10T15:02:19.265568
MEAN_MOTION    = 15.16609453
ECCENTRICITY   = .00334703
INCLINATION    = 97.5651
RA_OF_ASC_NODE = 86.6063
ARG_OF_PERICENTER = 4.2500
MEAN_ANOMALY   = 355.9010

EPHEMERIS_TYPE = 0
CLASSIFICATION_TYPE = U
NORAD_CAT_ID   = 29507
ELEMENT_SET_NO = 999
REV_AT_EPOCH   = 5594
BSTAR          = .23952717E-3
MEAN_MOTION_DOT = .4677E-4
MEAN_MOTION_DDOT = 0

CCSDS_OMM_VERS = 2.0
CREATION_DATE  = 
ORIGINATOR     = 

OBJECT_NAME    = CZ-2C R/B
OBJECT_ID      = 2007-010B
CENTER_NAME    = EARTH
REF_FRAME      = TEME
TIME_SYSTEM    = UTC
MEAN_ELEMENT_THEORY = SGP/SGP4

EPOCH          = 2026-02-10T21:13:27.415776
MEAN_MOTION    = 14.20236823
ECCENTRICITY   = .00591719
INCLINATION    = 98.3970
RA_OF_ASC_NODE = 156.5091
ARG_OF_PERICENTER = 13.3010
MEAN_ANOMALY   = 346.9711

EPHEMERIS_TYPE = 0
CLASSIFICATION_TYPE = U
NORAD_CAT_ID   = 31114
ELEMENT_SET_NO = 999
REV_AT_EPOCH   = 97591
BSTAR          = .7561264E-4
MEAN_MOTION_DOT = .123E-5
MEAN_MOTION_DDOT = 0

CCSDS_OMM_VERS = 2.0
CREATION_DATE  = 
ORIGINATOR     = 

OBJECT_NAME    = COSMO-SKYMED 1
OBJECT_ID      = 2007-023A
CENTER_NAME    = EARTH
REF_FRAME      = TEME
TIME_SYSTEM    = UTC
MEAN_ELEMENT_THEORY = SGP/SGP4

EPOCH          = 2026-02-10T22:01:14.664576
MEAN_MOTION    = 14.96318751
ECCENTRICITY   = .00008595
INCLINATION    = 97.8859
RA_OF_ASC_NODE = 232.7396
ARG_OF_PERICENTER = 86.6287
MEAN_ANOMALY   = 273.5032

EPHEMERIS_TYPE = 0
CLASSIFICATION_TYPE = U
NORAD_CAT_ID   = 31598
ELEMENT_SET_NO = 999
REV_AT_EPOCH   = 1090
BSTAR          = .3280256E-3
MEAN_MOTION_DOT = .365E-4
MEAN_MOTION_DDOT = 0

CCSDS_OMM_VERS = 2.0
CREATION_DATE  = 
ORIGINATOR     = 

OBJECT_NAME    = COSMOS 2428
OBJECT_ID      = 2007-029A
CENTER_NAME    = EARTH
REF_FRAME      = TEME
TIME_SYSTEM    = UTC
MEAN_ELEMENT_THEORY = SGP/SGP4

EPOCH          = 2026-02-10T21:58:36.667488
MEAN_MOTION    = 14.12934424
ECCENTRICITY   = .00074564
INCLINATION    = 70.9396
RA_OF_ASC_NODE = 259.5460
ARG_OF_PERICENTER = 306.6013
MEAN_ANOMALY   = 53.4422

EPHEMERIS_TYPE = 0
CLASSIFICATION_TYPE = U
NORAD_CAT_ID   = 31792
ELEMENT_SET_NO = 999
REV_AT_EPOCH   = 96031
BSTAR          = .19376404E-3
MEAN_MOTION_DOT = .313E-5
MEAN_MOTION_DDOT = 0

CCSDS_OMM_VERS = 2.0
CREATION_DATE  = 
ORIGINATOR     = 

OBJECT_NAME    = SL-16 R/B
OBJECT_ID      = 2007-029B
CENTER_NAME    = EARTH
REF_FRAME      = TEME
TIME_SYSTEM    = UTC
MEAN_ELEMENT_THEORY = SGP/SGP4

EPOCH          = 2026-02-10T22:02:08.518560
MEAN_MOTION    = 14.14833800
ECCENTRICITY   = .00020313
INCLINATION    = 70.9738
RA_OF_ASC_NODE = 228.6585
ARG_OF_PERICENTER = 279.3733
MEAN_ANOMALY   = 185.6151

EPHEMERIS_TYPE = 0
CLASSIFICATION_TYPE = U
NORAD_CAT_ID   = 31793
ELEMENT_SET_NO = 999
REV_AT_EPOCH   = 96158
BSTAR          = .20435098E-3
MEAN_MOTION_DOT = .347E-5
MEAN_MOTION_DDOT = 0

CCSDS_OMM_VERS = 2.0
CREATION_DATE  = 
ORIGINATOR     = 

OBJECT_NAME    = KORONAS-FOTON
OBJECT_ID      = 2009-003A
CENTER_NAME    = EARTH
REF_FRAME      = TEME
TIME_SYSTEM    = UTC
MEAN_ELEMENT_THEORY = SGP/SGP4

EPOCH          = 2026-02-10T20:24:38.730528
MEAN_MOTION    = 15.42605368
ECCENTRICITY   = .00089639
INCLINATION    = 82.4316
RA_OF_ASC_NODE = 303.7639
ARG_OF_PERICENTER = 252.4952
MEAN_ANOMALY   = 107.5315

EPHEMERIS_TYPE = 0
CLASSIFICATION_TYPE = U
NORAD_CAT_ID   = 33504
ELEMENT_SET_NO = 999
REV_AT_EPOCH   = 94160
BSTAR          = .25857576E-3
MEAN_MOTION_DOT = .11297E-3
MEAN_MOTION_DDOT = 0

CCSDS_OMM_VERS = 2.0
CREATION_DATE  = 
ORIGINATOR     = 

OBJECT_NAME    = CZ-2C R/B
OBJECT_ID      = 2011-030B
CENTER_NAME    = EARTH
REF_FRAME      = TEME
TIME_SYSTEM    = UTC
MEAN_ELEMENT_THEORY = SGP/SGP4

EPOCH          = 2026-02-10T20:36:26.072640
MEAN_MOTION    = 14.81116732
ECCENTRICITY   = .00542094
INCLINATION    = 97.8497
RA_OF_ASC_NODE = 359.6708
ARG_OF_PERICENTER = 77.9553
MEAN_ANOMALY   = 336.5424

EPHEMERIS_TYPE = 0
CLASSIFICATION_TYPE = U
NORAD_CAT_ID   = 37731
ELEMENT_SET_NO = 999
REV_AT_EPOCH   = 78612
BSTAR          = .21883798E-3
MEAN_MOTION_DOT = .1689E-4
MEAN_MOTION_DDOT = 0

CCSDS_OMM_VERS = 2.0
CREATION_DATE  = 
ORIGINATOR     = 

OBJECT_NAME    = H-2A R/B
OBJECT_ID      = 2012-025E
CENTER_NAME    = EARTH
REF_FRAME      = TEME
TIME_SYSTEM    = UTC
MEAN_ELEMENT_THEORY = SGP/SGP4

EPOCH          = 2026-02-10T21:22:11.214048
MEAN_MOTION    = 14.94926985
ECCENTRICITY   = .00456242
INCLINATION    = 98.4675
RA_OF_ASC_NODE = 6.8074
ARG_OF_PERICENTER = 41.7234
MEAN_ANOMALY   = 318.7450

EPHEMERIS_TYPE = 0
CLASSIFICATION_TYPE = U
NORAD_CAT_ID   = 38341
ELEMENT_SET_NO = 999
REV_AT_EPOCH   = 74421
BSTAR          = .36166337E-3
MEAN_MOTION_DOT = .396E-4
MEAN_MOTION_DDOT = 0

CCSDS_OMM_VERS = 2.0
CREATION_DATE  = 
ORIGINATOR     = 

OBJECT_NAME    = SHIJIAN-16 (SJ-16)
OBJECT_ID      = 2013-057A
CENTER_NAME    = EARTH
REF_FRAME      = TEME
TIME_SYSTEM    = UTC
MEAN_ELEMENT_THEORY = SGP/SGP4

EPOCH          = 2026-02-10T22:42:52.477344
MEAN_MOTION    = 14.92242687
ECCENTRICITY   = .00167669
INCLINATION    = 74.9706
RA_OF_ASC_NODE = 235.7126
ARG_OF_PERICENTER = 179.3502
MEAN_ANOMALY   = 180.7711

EPHEMERIS_TYPE = 0
CLASSIFICATION_TYPE = U
NORAD_CAT_ID   = 39358
ELEMENT_SET_NO = 999
REV_AT_EPOCH   = 66751
BSTAR          = .78140874E-4
MEAN_MOTION_DOT = .77E-5
MEAN_MOTION_DDOT = 0

